IRS-P5 (CARTOSAT-1)     
1 28649U 05017A   21146.43175644  .00000110  00000-0  19564-4 0  9991
2 28649  97.7687 213.1744 0002604  68.8032 291.3460 14.83788460869340
NOAA 18                 
1 28654U 05018A   21146.77200643  .00000083  00000-0  69281-4 0  9993
2 28654  98.9949 211.5489 0013811 347.8177  12.2658 14.12608963825476
DIRECTV 8               
1 28659U 05019A   21146.64337694  .00000001  00000-0  00000+0 0  9991
2 28659   0.0135 286.5782 0003139 143.3072 287.1154  1.00272263 58661
GALAXY 28 (G-28)        
1 28702U 05022A   21146.57760786 -.00000185  00000-0  00000+0 0  9992
2 28702   0.0062  36.4929 0002844 330.6453 356.1580  1.00270380 58309
EXPRESS-AM3             
1 28707U 05023A   21146.07827086  .00000136  00000-0  00000-0 0  9996
2 28707   2.6251  87.3725 0000929 181.4144  26.2485  1.00274094 58307
SJ-7                    
1 28737U 05024A   21146.40953105  .00000865  00000-0  80864-4 0  9998
2 28737  97.6987 145.3072 0033635 176.1111 184.0378 14.96308297870101
THAICOM 4               
1 28786U 05028A   21146.76593657 -.00000362  00000-0  00000+0 0  9999
2 28786   0.0168 306.9476 0002829 120.1962 212.6406  1.00271864 57805
GALAXY 14 (G-14)        
1 28790U 05030A   21146.37295997 -.00000213  00000-0  00000-0 0  9996
2 28790   0.3011  94.8144 0003149 313.7483 294.5442  1.00508391 57772
REIMEI (INDEX)          
1 28810U 05031B   21146.41080097  .00000409  00000-0  47502-4 0  9996
2 28810  98.1072 194.6316 0028749 145.9692 214.3376 14.90727709854441
ANIK F1R                
1 28868U 05036A   21146.47543049 -.00000073  00000-0  00000-0 0  9997
2 28868   0.0448  80.0926 0003422 328.6983 259.3246  1.00271054 27926
NAVSTAR 57 (USA 183)    
1 28874U 05038A   21146.37029013 -.00000071  00000-0  00000-0 0  9993
2 28874  56.2758 346.6975 0135461 270.2761 270.2203  2.00572346114774
GALAXY 15 (G-15)        
1 28884U 05041A   21146.71235685  .00000079  00000-0  00000+0 0  9996
2 28884   0.0271 296.1636 0001721 129.1645 302.6258  1.00274018 57083
SYRACUSE 3A             
1 28885U 05041B   21146.77178553  .00000129  00000-0  00000+0 0  9999
2 28885   0.1662  98.3018 0004254 331.3277 139.7862  1.00274664 57208
BEIJING 1               
1 28890U 05043A   21146.55274718  .00000007  00000-0  10700-4 0  9991
2 28890  98.0716 272.1887 0013973 310.4318  49.5663 14.61332680830635
SINAH 1                 
1 28893U 05043D   21146.80829800 -.00000002  00000-0  88980-5 0  9992
2 28893  98.0660 273.8356 0014063 308.4127  51.5811 14.61571712830731
CUBESAT XI-V            
1 28895U 05043F   21146.62199946  .00000129  00000-0  33752-4 0  9990
2 28895  98.0558 280.3409 0015369 279.7585  80.1882 14.63911916831046
INMARSAT 4-F2           
1 28899U 05044A   21146.75161302  .00000009  00000-0  00000+0 0  9996
2 28899   3.2285  33.5354 0003204  42.2405 143.2253  1.00272013 56970
TELKOM 2                
1 28902U 05046A   21146.77019428 -.00000138  00000-0  00000+0 0  9990
2 28902   0.0058 353.8474 0000812 107.1763 217.7776  1.00272021 56717
SPACEWAY 2              
1 28903U 05046B   21146.47416469  .00000105  00000-0  00000-0 0  9998
2 28903   1.0072  91.8176 0000590 348.4265 195.8114  1.00271178 32812
COSMOS 2416             
1 28908U 05048A   21146.46868510  .00000031  00000-0  12577-3 0  9995
2 28908  82.4717  49.1287 0007753 344.7358 188.6411 12.55509161707025
METEOSAT-9 (MSG-2)      
1 28912U 05049B   21146.08938198  .00000016  00000-0  00000-0 0  9997
2 28912   5.1640  68.5520 0000680 314.9934 255.7894  1.00272273 56503
EUTELSAT 174A           
1 28924U 05052A   21146.77359649  .00000010  00000-0  00000+0 0  9991
2 28924   0.0517   1.4362 0006663  69.3643 266.2494  1.00272414 56463
ECHOSTAR 10             
1 28935U 06003A   21146.64512166 -.00000055  00000-0  00000+0 0  9991
2 28935   0.0232 266.9607 0001579 186.3133 273.1913  1.00271197 55991
SPAINSAT                
1 28945U 06007A   21145.40782007 -.00000213  00000-0  00000+0 0  9998
2 28945   0.0299 251.5173 0002485 185.5150 283.0050  1.00271645 55697
EUTELSAT HOTBIRD 13E    
1 28946U 06007B   21146.23901831  .00000088  00000-0  00000-0 0  9999
2 28946   0.0438 188.3780 0004888 274.3527 240.3347  1.00271233 55775
JCSAT-5A                
1 29045U 06010A   21146.74121766 -.00000328  00000-0  00000+0 0  9998
2 29045   0.0368 119.3193 0002089 321.3917 202.7093  1.00271056 55411
FORMOSAT-3 FM6          
1 29047U 06011A   21146.68353619  .00000033  00000-0  29163-4 0  9996
2 29047  71.9767 129.3991 0050891 191.9382 168.0552 14.28812193790351
FORMOSAT-3 FM1          
1 29048U 06011B   21146.43046874  .00000090  00000-0  51448-4 0  9996
2 29048  71.9681  40.4245 0043121 150.9554 209.3995 14.28776186792775
FORMOSAT-3 FM5          
1 29049U 06011C   21146.48294237  .00000095  00000-0  53498-4 0  9992
2 29049  72.0205 213.9175 0034797 175.4677 184.6782 14.28857619788557
FORMOSAT-3 FM3          
1 29050U 06011D   21146.44409429  .00000117  00000-0  34691-4 0  9990
2 29050  72.0156 325.0005 0048474  60.5144 300.0830 14.59067009806347
FORMOSAT-3 FM4          
1 29051U 06011E   21146.33477247  .00000073  00000-0  44174-4 0  9990
2 29051  72.0038 115.6119 0066762  50.9999 309.7057 14.28889359791129
FORMOSAT-3 FM2          
1 29052U 06011F   21146.37929303  .00000095  00000-0  53279-4 0  9990
2 29052  72.0336 190.7503 0038816 132.9955 227.4446 14.28999755788647
ASTRA 1KR               
1 29055U 06012A   21146.75944677  .00000120  00000-0  00000+0 0  9995
2 29055   0.0543 276.4111 0001210 189.1088  71.5950  1.00272411 55225
EROS B                  
1 29079U 06014A   21146.51722488  .00002299  00000-0  10001-3 0  9996
2 29079  97.4013 267.1623 0007419 179.3973 246.2804 15.23246588837457
CLOUDSAT                
1 29107U 06016A   21146.71996704  .00000072  00000-0  23795-4 0  9998
2 29107  98.2773  99.6625 0001791  71.6841 288.4555 14.62369029802660
CALIPSO                 
1 29108U 06016B   21146.41624074  .00000128  00000-0  34637-4 0  9993
2 29108  98.2749  99.1305 0001411  85.5778 274.5584 14.62547668802447
EWS-G1 (GOES 13)        
1 29155U 06018A   21146.39232635  .00000037  00000-0  00000-0 0  9994
2 29155   0.1661 267.6231 0002859 278.9129 260.6454  1.00266190 24847
EUTELSAT 113 WEST A     
1 29162U 06020A   21146.47048642 -.00000036  00000-0  00000-0 0  9997
2 29162   0.0056 271.6248 0002978 153.3438 235.6715  1.00272723 54952
RESURS-DK 1             
1 29228U 06021A   21146.24905318  .00000106  00000-0  15270-4 0  9994
2 29228  69.9369  35.2443 0007502 285.3765  74.6567 15.02693908824213
GALAXY 16 (G-16)        
1 29236U 06023A   21146.48285191 -.00000126  00000-0  00000-0 0  9995
2 29236   0.0647 108.1191 0002743 321.4393 249.5410  1.00271541 54446
GENESIS 1               
1 29252U 06029A   21146.42984420  .00000372  00000-0  27669-4 0  9990
2 29252  64.5223 259.3985 0040915 321.8685  37.9545 15.18660312820171
ARIRANG-2 (KOMPSAT-2)   
1 29268U 06031A   21146.47598876  .00000055  00000-0  19863-4 0  9996
2 29268  97.9444  26.5696 0017968 147.6782 212.5519 14.62363501791346
EUTELSAT HOTBIRD 13B    
1 29270U 06032A   21146.23901831  .00000088  00000-0  00000-0 0  9998
2 29270   0.0666   8.8750 0004630  43.7623 290.4235  1.00271655 28772
JCSAT-3A                
1 29272U 06033A   21146.73890767 -.00000344  00000-0  00000+0 0  9996
2 29272   0.0515 118.0353 0002314 312.7840 207.7159  1.00272149 54232
SYRACUSE 3B             
1 29273U 06033B   21146.37897927 -.00000043  00000-0  00000-0 0  9999
2 29273   0.0192  51.2094 0005617  21.2785 302.9041  1.00270894 54179
KOREASAT 5 (MUGUNGWHA 5)
1 29349U 06034A   21146.33079052 -.00000357  00000-0  00000-0 0  9999
2 29349   0.0273 285.2931 0001989 176.1692  14.7968  1.00269392 22797
HINODE (SOLAR-B)        
1 29479U 06041A   21146.29227811  .00000080  00000-0  24220-4 0  9990
2 29479  98.1361 161.0955 0019310   8.7199 351.4336 14.64557790784086
NAVSTAR 58 (USA 190)    
1 29486U 06042A   21145.77408565  .00000041  00000-0  00000-0 0  9991
2 29486  54.7736 224.7097 0098600  13.7236   8.6306  2.00549551107326
DIRECTV 9S              
1 29494U 06043A   21146.48160345 -.00000112  00000-0  00000-0 0  9991
2 29494   0.0027 105.9868 0003236 321.2007 249.2557  1.00270958 32859
OPTUS D1                
1 29495U 06043B   21146.77080494 -.00000111  00000-0  00000+0 0  9998
2 29495   0.0146 307.7467 0003765 119.1999 255.0827  1.00270900 53620
METOP-A                 
1 29499U 06044A   21146.79614319  .00000005  00000-0  21494-4 0  9990
2 29499  98.4735 186.9291 0001275  69.1104  20.5704 14.21499678757663
SJ-6C                   
1 29505U 06046A   21146.34814466  .00001040  00000-0  10004-3 0  9990
2 29505  97.8001 164.6486 0004103 357.6503   2.4718 14.95150812794840
SJ-6D                   
1 29506U 06046B   21146.48947222  .00000240  00000-0  28124-4 0  9997
2 29506  97.8199 165.0045 0003926  75.6664 284.4930 14.93609766794373
XM-4 (BLUES)            
1 29520U 06049A   21146.64416206 -.00000023  00000-0  00000+0 0  9995
2 29520   0.0144 353.9553 0000486  92.0702 275.0637  1.00271439 53476
DMSP 5D-3 F17 (USA 191) 
1 29522U 06050A   21146.73974472 -.00000074  00000-0 -16078-4 0  9997
2 29522  98.7850 163.6757 0008663 283.5768  76.4439 14.14044736751242
BADR-4                  
1 29526U 06051A   21146.74411073  .00000145  00000-0  00000+0 0  9996
2 29526   0.0564 322.0917 0003504  83.8784 132.4415  1.00273724 53368
NAVSTAR 59 (USA 192)    
1 29601U 06052A   21145.68424712 -.00000040  00000-0  00000-0 0  9993
2 29601  55.7862 287.3633 0082072  69.0497 291.7993  2.00556245106331
WILDBLUE-1              
1 29643U 06054A   21146.47294907 -.00000048  00000-0  00000-0 0  9998
2 29643   0.0167  57.1629 0002003 359.3959 246.7803  1.00269739 35261
AMC-18                  
1 29644U 06054B   21146.43071826 -.00000214  00000-0  00000-0 0  9993
2 29644   0.0123 316.9017 0002116 104.6410 254.7302  1.00267480 53038
